[{"OBJECT_NAME":"STARLINK-4079","OBJECT_ID":"2022-053L","EPOCH":"2026-03-09T11:59:44.414304","MEAN_MOTION":15.08838912,"ECCENTRICITY":0.00013808,"INCLINATION":53.2168,"RA_OF_ASC_NODE":154.5879,"ARG_OF_PERICENTER":70.9549,"MEAN_ANOMALY":289.1592,"EPHEMERIS_TYPE":0,"CLASSIFICATION_TYPE":"U","NORAD_CAT_ID":52666,"ELEMENT_SET_NO":999,"REV_AT_EPOCH":21102,"BSTAR":2.346554e-5,"MEAN_MOTION_DOT":8.6e-7,"MEAN_MOTION_DDOT":0},{"OBJECT_NAME":"COSMOS 2084","OBJECT_ID":"1990-055A","EPOCH":"2026-03-09T23:42:10.320480","MEAN_MOTION":15.05654003,"ECCENTRICITY":0.00170188,"INCLINATION":62.7921,"RA_OF_ASC_NODE":334.5624,"ARG_OF_PERICENTER":190.1371,"MEAN_ANOMALY":169.9389,"EPHEMERIS_TYPE":0,"CLASSIFICATION_TYPE":"U","NORAD_CAT_ID":20663,"ELEMENT_SET_NO":999,"REV_AT_EPOCH":93636,"BSTAR":0.00023056361,"MEAN_MOTION_DOT":3.154e-5,"MEAN_MOTION_DDOT":0}]
